[
  {
    "houseNo": 416,
    "landmark": "Tampa Court",
    "city": "Sylvanite",
    "state": "Louisiana",
    "pincode": 896809
  },
  {
    "houseNo": 415,
    "landmark": "Belvidere Street",
    "city": "Ferney",
    "state": "Connecticut",
    "pincode": 443318
  },
  {
    "houseNo": 318,
    "landmark": "Richardson Street",
    "city": "Wauhillau",
    "state": "Maine",
    "pincode": 219314
  },
  {
    "houseNo": 468,
    "landmark": "Front Street",
    "city": "Bennett",
    "state": "Washington",
    "pincode": 852786
  },
  {
    "houseNo": 289,
    "landmark": "Crown Street",
    "city": "Craig",
    "state": "North Dakota",
    "pincode": 136185
  },
  {
    "houseNo": 176,
    "landmark": "Victor Road",
    "city": "Gardiner",
    "state": "Rhode Island",
    "pincode": 258744
  },
  {
    "houseNo": 396,
    "landmark": "Hanover Place",
    "city": "Iberia",
    "state": "Nevada",
    "pincode": 177070
  },
  {
    "houseNo": 440,
    "landmark": "Hart Place",
    "city": "Elbert",
    "state": "South Carolina",
    "pincode": 908051
  },
  {
    "houseNo": 471,
    "landmark": "Everit Street",
    "city": "Williams",
    "state": "Missouri",
    "pincode": 948498
  },
  {
    "houseNo": 144,
    "landmark": "Oxford Street",
    "city": "Gloucester",
    "state": "Arkansas",
    "pincode": 676644
  },
  {
    "houseNo": 412,
    "landmark": "Ovington Court",
    "city": "Ilchester",
    "state": "Michigan",
    "pincode": 420164
  },
  {
    "houseNo": 163,
    "landmark": "Quentin Road",
    "city": "Roosevelt",
    "state": "Colorado",
    "pincode": 752802
  },
  {
    "houseNo": 290,
    "landmark": "Bassett Avenue",
    "city": "Morriston",
    "state": "Wisconsin",
    "pincode": 504115
  },
  {
    "houseNo": 185,
    "landmark": "Kings Place",
    "city": "Ventress",
    "state": "Texas",
    "pincode": 403003
  },
  {
    "houseNo": 386,
    "landmark": "Harrison Place",
    "city": "Crucible",
    "state": "Idaho",
    "pincode": 758334
  },
  {
    "houseNo": 303,
    "landmark": "Lewis Place",
    "city": "Maxville",
    "state": "Alaska",
    "pincode": 104758
  },
  {
    "houseNo": 116,
    "landmark": "Butler Place",
    "city": "Loomis",
    "state": "Virgin Islands",
    "pincode": 98204
  },
  {
    "houseNo": 185,
    "landmark": "Gelston Avenue",
    "city": "Dawn",
    "state": "California",
    "pincode": 106080
  },
  {
    "houseNo": 319,
    "landmark": "Sackman Street",
    "city": "Belgreen",
    "state": "District Of Columbia",
    "pincode": 156581
  },
  {
    "houseNo": 164,
    "landmark": "Gerritsen Avenue",
    "city": "Eastmont",
    "state": "North Carolina",
    "pincode": 568362
  },
  {
    "houseNo": 436,
    "landmark": "Stillwell Avenue",
    "city": "Wyano",
    "state": "Kentucky",
    "pincode": 573735
  },
  {
    "houseNo": 119,
    "landmark": "Meadow Street",
    "city": "Carrizo",
    "state": "Florida",
    "pincode": 922361
  },
  {
    "houseNo": 150,
    "landmark": "Louis Place",
    "city": "Imperial",
    "state": "Hawaii",
    "pincode": 435230
  },
  {
    "houseNo": 296,
    "landmark": "Veronica Place",
    "city": "Lloyd",
    "state": "Massachusetts",
    "pincode": 738687
  },
  {
    "houseNo": 269,
    "landmark": "Albany Avenue",
    "city": "Edneyville",
    "state": "Northern Mariana Islands",
    "pincode": 19720
  },
  {
    "houseNo": 185,
    "landmark": "Coleman Street",
    "city": "Sunriver",
    "state": "Nebraska",
    "pincode": 995346
  },
  {
    "houseNo": 209,
    "landmark": "Chapel Street",
    "city": "Munjor",
    "state": "Tennessee",
    "pincode": 527266
  },
  {
    "houseNo": 269,
    "landmark": "Hausman Street",
    "city": "Dunnavant",
    "state": "Utah",
    "pincode": 797669
  },
  {
    "houseNo": 223,
    "landmark": "Lott Avenue",
    "city": "Castleton",
    "state": "Alabama",
    "pincode": 609329
  },
  {
    "houseNo": 184,
    "landmark": "Coyle Street",
    "city": "Crisman",
    "state": "Arizona",
    "pincode": 910847
  },
  {
    "houseNo": 191,
    "landmark": "King Street",
    "city": "Fresno",
    "state": "Iowa",
    "pincode": 327221
  },
  {
    "houseNo": 351,
    "landmark": "Chester Court",
    "city": "Summerset",
    "state": "Illinois",
    "pincode": 203387
  },
  {
    "houseNo": 458,
    "landmark": "Gates Avenue",
    "city": "Bowie",
    "state": "Vermont",
    "pincode": 199626
  },
  {
    "houseNo": 228,
    "landmark": "Hutchinson Court",
    "city": "Fedora",
    "state": "Guam",
    "pincode": 744246
  },
  {
    "houseNo": 215,
    "landmark": "Baycliff Terrace",
    "city": "Hessville",
    "state": "American Samoa",
    "pincode": 466892
  },
  {
    "houseNo": 316,
    "landmark": "Fair Street",
    "city": "Beaverdale",
    "state": "Oklahoma",
    "pincode": 97342
  },
  {
    "houseNo": 104,
    "landmark": "Cambridge Place",
    "city": "Bartonsville",
    "state": "West Virginia",
    "pincode": 101574
  },
  {
    "houseNo": 407,
    "landmark": "Turner Place",
    "city": "Greenock",
    "state": "Delaware",
    "pincode": 943696
  },
  {
    "houseNo": 177,
    "landmark": "Cooke Court",
    "city": "Waikele",
    "state": "New Hampshire",
    "pincode": 26126
  },
  {
    "houseNo": 496,
    "landmark": "Guider Avenue",
    "city": "Taft",
    "state": "Georgia",
    "pincode": 238643
  },
  {
    "houseNo": 141,
    "landmark": "Chestnut Street",
    "city": "Gratton",
    "state": "Puerto Rico",
    "pincode": 152880
  },
  {
    "houseNo": 404,
    "landmark": "Pioneer Street",
    "city": "Gallina",
    "state": "Maryland",
    "pincode": 734843
  },
  {
    "houseNo": 439,
    "landmark": "Irvington Place",
    "city": "Dexter",
    "state": "Indiana",
    "pincode": 233797
  },
  {
    "houseNo": 251,
    "landmark": "Hooper Street",
    "city": "Grandview",
    "state": "South Dakota",
    "pincode": 672864
  },
  {
    "houseNo": 373,
    "landmark": "Nassau Street",
    "city": "Macdona",
    "state": "New Jersey",
    "pincode": 111171
  },
  {
    "houseNo": 126,
    "landmark": "Pilling Street",
    "city": "Highland",
    "state": "New York",
    "pincode": 555935
  },
  {
    "houseNo": 493,
    "landmark": "Greene Avenue",
    "city": "Turah",
    "state": "Kansas",
    "pincode": 564337
  },
  {
    "houseNo": 417,
    "landmark": "Pooles Lane",
    "city": "Emison",
    "state": "Virginia",
    "pincode": 13693
  },
  {
    "houseNo": 443,
    "landmark": "Beverley Road",
    "city": "Herlong",
    "state": "Mississippi",
    "pincode": 954387
  },
  {
    "houseNo": 153,
    "landmark": "Himrod Street",
    "city": "Villarreal",
    "state": "Wyoming",
    "pincode": 979619
  },
  {
    "houseNo": 351,
    "landmark": "Suydam Street",
    "city": "Trucksville",
    "state": "Montana",
    "pincode": 500231
  },
  {
    "houseNo": 130,
    "landmark": "Rogers Avenue",
    "city": "Lindisfarne",
    "state": "Pennsylvania",
    "pincode": 975671
  },
  {
    "houseNo": 352,
    "landmark": "Fuller Place",
    "city": "Gila",
    "state": "Federated States Of Micronesia",
    "pincode": 597585
  },
  {
    "houseNo": 301,
    "landmark": "Melrose Street",
    "city": "Trinway",
    "state": "Minnesota",
    "pincode": 784619
  },
  {
    "houseNo": 388,
    "landmark": "Stone Avenue",
    "city": "Grill",
    "state": "Marshall Islands",
    "pincode": 566548
  },
  {
    "houseNo": 107,
    "landmark": "Fairview Place",
    "city": "Onton",
    "state": "Oregon",
    "pincode": 244276
  },
  {
    "houseNo": 212,
    "landmark": "Oceanic Avenue",
    "city": "Vandiver",
    "state": "Palau",
    "pincode": 357082
  },
  {
    "houseNo": 454,
    "landmark": "Irving Avenue",
    "city": "Edmund",
    "state": "Ohio",
    "pincode": 887576
  },
  {
    "houseNo": 330,
    "landmark": "Seba Avenue",
    "city": "Coaldale",
    "state": "Louisiana",
    "pincode": 920289
  },
  {
    "houseNo": 199,
    "landmark": "Madoc Avenue",
    "city": "Thornport",
    "state": "Connecticut",
    "pincode": 739708
  },
  {
    "houseNo": 110,
    "landmark": "Pine Street",
    "city": "Lavalette",
    "state": "Maine",
    "pincode": 24427
  },
  {
    "houseNo": 404,
    "landmark": "Claver Place",
    "city": "Hackneyville",
    "state": "Washington",
    "pincode": 499829
  },
  {
    "houseNo": 197,
    "landmark": "Grimes Road",
    "city": "Tooleville",
    "state": "North Dakota",
    "pincode": 924091
  },
  {
    "houseNo": 155,
    "landmark": "Gardner Avenue",
    "city": "Eagleville",
    "state": "Rhode Island",
    "pincode": 559796
  },
  {
    "houseNo": 188,
    "landmark": "India Street",
    "city": "Olney",
    "state": "Nevada",
    "pincode": 316966
  },
  {
    "houseNo": 111,
    "landmark": "Vanderbilt Street",
    "city": "Caroline",
    "state": "South Carolina",
    "pincode": 820672
  },
  {
    "houseNo": 206,
    "landmark": "Milton Street",
    "city": "Needmore",
    "state": "Missouri",
    "pincode": 181777
  },
  {
    "houseNo": 373,
    "landmark": "Wortman Avenue",
    "city": "Chelsea",
    "state": "Arkansas",
    "pincode": 541777
  },
  {
    "houseNo": 264,
    "landmark": "Tech Place",
    "city": "Collins",
    "state": "Michigan",
    "pincode": 283865
  },
  {
    "houseNo": 287,
    "landmark": "Williamsburg Street",
    "city": "Cascades",
    "state": "Colorado",
    "pincode": 80827
  },
  {
    "houseNo": 124,
    "landmark": "Commercial Street",
    "city": "Vowinckel",
    "state": "Wisconsin",
    "pincode": 581055
  },
  {
    "houseNo": 406,
    "landmark": "Kenmore Court",
    "city": "Edenburg",
    "state": "Texas",
    "pincode": 159721
  },
  {
    "houseNo": 493,
    "landmark": "Erasmus Street",
    "city": "Caspar",
    "state": "Idaho",
    "pincode": 931343
  },
  {
    "houseNo": 387,
    "landmark": "Livonia Avenue",
    "city": "Katonah",
    "state": "Alaska",
    "pincode": 28238
  },
  {
    "houseNo": 121,
    "landmark": "Ruby Street",
    "city": "Gulf",
    "state": "Virgin Islands",
    "pincode": 693338
  },
  {
    "houseNo": 285,
    "landmark": "Cumberland Street",
    "city": "Trexlertown",
    "state": "California",
    "pincode": 711815
  },
  {
    "houseNo": 313,
    "landmark": "Plymouth Street",
    "city": "Kent",
    "state": "District Of Columbia",
    "pincode": 285895
  },
  {
    "houseNo": 332,
    "landmark": "Gilmore Court",
    "city": "Leland",
    "state": "North Carolina",
    "pincode": 547320
  },
  {
    "houseNo": 424,
    "landmark": "Junius Street",
    "city": "Oasis",
    "state": "Kentucky",
    "pincode": 138966
  },
  {
    "houseNo": 290,
    "landmark": "Maple Street",
    "city": "Virgie",
    "state": "Florida",
    "pincode": 478131
  },
  {
    "houseNo": 149,
    "landmark": "Lefferts Avenue",
    "city": "Bakersville",
    "state": "Hawaii",
    "pincode": 285754
  },
  {
    "houseNo": 154,
    "landmark": "Bush Street",
    "city": "Clinton",
    "state": "Massachusetts",
    "pincode": 854990
  },
  {
    "houseNo": 466,
    "landmark": "Congress Street",
    "city": "Konterra",
    "state": "Northern Mariana Islands",
    "pincode": 800867
  },
  {
    "houseNo": 223,
    "landmark": "Jardine Place",
    "city": "Shindler",
    "state": "Nebraska",
    "pincode": 306904
  },
  {
    "houseNo": 290,
    "landmark": "Beadel Street",
    "city": "Sexton",
    "state": "Tennessee",
    "pincode": 993846
  },
  {
    "houseNo": 190,
    "landmark": "Metropolitan Avenue",
    "city": "Kempton",
    "state": "Utah",
    "pincode": 192350
  },
  {
    "houseNo": 287,
    "landmark": "Hart Street",
    "city": "Loretto",
    "state": "Alabama",
    "pincode": 952132
  },
  {
    "houseNo": 379,
    "landmark": "Locust Avenue",
    "city": "Lupton",
    "state": "Arizona",
    "pincode": 724824
  },
  {
    "houseNo": 491,
    "landmark": "Amherst Street",
    "city": "Jacumba",
    "state": "Iowa",
    "pincode": 94439
  },
  {
    "houseNo": 121,
    "landmark": "Court Square",
    "city": "Gracey",
    "state": "Illinois",
    "pincode": 270000
  },
  {
    "houseNo": 500,
    "landmark": "Metrotech Courtr",
    "city": "Charco",
    "state": "Vermont",
    "pincode": 153212
  },
  {
    "houseNo": 277,
    "landmark": "Kenmore Terrace",
    "city": "Detroit",
    "state": "Guam",
    "pincode": 612791
  },
  {
    "houseNo": 175,
    "landmark": "Lake Street",
    "city": "Boonville",
    "state": "American Samoa",
    "pincode": 999260
  },
  {
    "houseNo": 214,
    "landmark": "Anchorage Place",
    "city": "Avoca",
    "state": "Oklahoma",
    "pincode": 820850
  },
  {
    "houseNo": 163,
    "landmark": "Preston Court",
    "city": "Harleigh",
    "state": "West Virginia",
    "pincode": 850505
  },
  {
    "houseNo": 468,
    "landmark": "Calder Place",
    "city": "Titanic",
    "state": "Delaware",
    "pincode": 965408
  },
  {
    "houseNo": 324,
    "landmark": "College Place",
    "city": "Glendale",
    "state": "New Hampshire",
    "pincode": 158031
  },
  {
    "houseNo": 104,
    "landmark": "Woodrow Court",
    "city": "Aguila",
    "state": "Georgia",
    "pincode": 360315
  },
  {
    "houseNo": 229,
    "landmark": "Tehama Street",
    "city": "Naomi",
    "state": "Puerto Rico",
    "pincode": 655938
  },
  {
    "houseNo": 214,
    "landmark": "Glenwood Road",
    "city": "Islandia",
    "state": "Maryland",
    "pincode": 839633
  }
]